start=new Date('2022-01-12T00:00:00.000Z').valueOf();
sats=[{"SEMIMAJOR_AXIS":"6851.087","PERIAPSIS":"471.897","OBJECT_NAME":"STARLINK-3149","TIME_SYSTEM":"UTC","RA_OF_ASC_NODE":"203.8474","APOAPSIS":"474.007","MEAN_MOTION":"15.30958975","ARG_OF_PERICENTER":"46.3351","MEAN_ELEMENT_THEORY":"SGP4","INCLINATION":"53.2177","GP_ID":"193694184","MEAN_MOTION_DOT":"-0.00660523","COUNTRY_CODE":"US","ECCENTRICITY":"0.00015400","REF_FRAME":"TEME","LAUNCH_DATE":"2021-11-13","EPOCH":"2022-01-11T22:00:00.999936","TLE_LINE2":"2 49423  53.2177 203.8474 0001540  46.3351  25.5091 15.30958975  3646","BSTAR":"-0.02345200000000","SITE":"AFETR","CENTER_NAME":"EARTH","MEAN_ANOMALY":"25.5091","CLASSIFICATION_TYPE":"U","ELEMENT_SET_NO":"999","FILE":"3269987","OBJECT_TYPE":"PAYLOAD","OBJECT_ID":"2021-104R","RCS_SIZE":"LARGE","TLE_LINE1":"1 49423U 21104R   22011.91667824 -.00660523  00000-0 -23452-1 0  9990","DECAY_DATE":null,"MEAN_MOTION_DDOT":"0.0000000000000","NORAD_CAT_ID":"49423","REV_AT_EPOCH":"364","EPHEMERIS_TYPE":"0","PERIOD":"94.059"},{"EPHEMERIS_TYPE":"0","NORAD_CAT_ID":"49424","REV_AT_EPOCH":"364","PERIOD":"94.080","DECAY_DATE":null,"MEAN_MOTION_DDOT":"0.0000000000000","RCS_SIZE":"LARGE","TLE_LINE1":"1 49424U 21104S   22011.91667824 -.00660679  00000-0 -23713-1 0  9993","FILE":"3269987","OBJECT_ID":"2021-104S","OBJECT_TYPE":"PAYLOAD","SITE":"AFETR","CENTER_NAME":"EARTH","ELEMENT_SET_NO":"999","CLASSIFICATION_TYPE":"U","MEAN_ANOMALY":"338.1027","BSTAR":"-0.02371300000000","TLE_LINE2":"2 49424  53.2177 203.8492 0001386  53.2399 338.1027 15.30613748  3642","LAUNCH_DATE":"2021-11-13","EPOCH":"2022-01-11T22:00:00.999936","ECCENTRICITY":"0.00013860","REF_FRAME":"TEME","MEAN_MOTION_DOT":"-0.00660679","COUNTRY_CODE":"US","GP_ID":"193695440","MEAN_ELEMENT_THEORY":"SGP4","ARG_OF_PERICENTER":"53.2399","INCLINATION":"53.2177","MEAN_MOTION":"15.30613748","APOAPSIS":"474.932","RA_OF_ASC_NODE":"203.8492","PERIAPSIS":"473.032","OBJECT_NAME":"STARLINK-3135","TIME_SYSTEM":"UTC","SEMIMAJOR_AXIS":"6852.117"},{"INCLINATION":"53.2177","ARG_OF_PERICENTER":"49.8843","MEAN_ELEMENT_THEORY":"SGP4","GP_ID":"193695684","COUNTRY_CODE":"US","MEAN_MOTION_DOT":"-0.00660129","REF_FRAME":"TEME","ECCENTRICITY":"0.00014990","SEMIMAJOR_AXIS":"6850.744","TIME_SYSTEM":"UTC","OBJECT_NAME":"STARLINK-3139","PERIAPSIS":"471.582","APOAPSIS":"473.636","MEAN_MOTION":"15.31073910","RA_OF_ASC_NODE":"203.8467","OBJECT_TYPE":"PAYLOAD","OBJECT_ID":"2021-104T","FILE":"3269987","TLE_LINE1":"1 49425U 21104T   22011.91667824 -.00660129  00000-0 -23353-1 0  9994","RCS_SIZE":"LARGE","DECAY_DATE":null,"MEAN_MOTION_DDOT":"0.0000000000000","PERIOD":"94.052","REV_AT_EPOCH":"364","NORAD_CAT_ID":"49425","EPHEMERIS_TYPE":"0","EPOCH":"2022-01-11T22:00:00.999936","LAUNCH_DATE":"2021-11-13","TLE_LINE2":"2 49425  53.2177 203.8467 0001499  49.8843  35.3922 15.31073910  3647","BSTAR":"-0.02335300000000","MEAN_ANOMALY":"35.3922","CLASSIFICATION_TYPE":"U","ELEMENT_SET_NO":"999","SITE":"AFETR","CENTER_NAME":"EARTH"},{"BSTAR":"-0.02354000000000","TLE_LINE2":"2 49426  53.2177 203.8480 0001530  46.0267  12.3510 15.30843921  3642","EPOCH":"2022-01-11T22:00:00.999936","LAUNCH_DATE":"2021-11-13","CLASSIFICATION_TYPE":"U","ELEMENT_SET_NO":"999","MEAN_ANOMALY":"12.3510","SITE":"AFETR","CENTER_NAME":"EARTH","OBJECT_ID":"2021-104U","OBJECT_TYPE":"PAYLOAD","FILE":"3269987","PERIOD":"94.066","EPHEMERIS_TYPE":"0","NORAD_CAT_ID":"49426","REV_AT_EPOCH":"364","DECAY_DATE":null,"MEAN_MOTION_DDOT":"0.0000000000000","TLE_LINE1":"1 49426U 21104U   22011.91667824 -.00660613  00000-0 -23540-1 0  9991","RCS_SIZE":"LARGE","TIME_SYSTEM":"UTC","OBJECT_NAME":"STARLINK-3114","PERIAPSIS":"472.247","SEMIMAJOR_AXIS":"6851.430","APOAPSIS":"474.343","MEAN_MOTION":"15.30843921","RA_OF_ASC_NODE":"203.8480","GP_ID":"193693940","INCLINATION":"53.2177","MEAN_ELEMENT_THEORY":"SGP4","ARG_OF_PERICENTER":"46.0267","REF_FRAME":"TEME","ECCENTRICITY":"0.00015300","COUNTRY_CODE":"US","MEAN_MOTION_DOT":"-0.00660613"},{"LAUNCH_DATE":"2021-11-13","EPOCH":"2022-01-11T22:00:00.999936","TLE_LINE2":"2 49427  53.2176 203.8458 0001540  49.0257  49.6493 15.31188802  3644","BSTAR":"-0.02325200000000","CENTER_NAME":"EARTH","SITE":"AFETR","MEAN_ANOMALY":"49.6493","ELEMENT_SET_NO":"999","CLASSIFICATION_TYPE":"U","FILE":"3269987","OBJECT_TYPE":"PAYLOAD","OBJECT_ID":"2021-104V","RCS_SIZE":"LARGE","TLE_LINE1":"1 49427U 21104V   22011.91667824 -.00659682  00000-0 -23252-1 0  9996","MEAN_MOTION_DDOT":"0.0000000000000","DECAY_DATE":null,"NORAD_CAT_ID":"49427","REV_AT_EPOCH":"364","EPHEMERIS_TYPE":"0","PERIOD":"94.045","SEMIMAJOR_AXIS":"6850.401","OBJECT_NAME":"STARLINK-3131","PERIAPSIS":"471.211","TIME_SYSTEM":"UTC","APOAPSIS":"473.321","RA_OF_ASC_NODE":"203.8458","MEAN_MOTION":"15.31188802","ARG_OF_PERICENTER":"49.0257","MEAN_ELEMENT_THEORY":"SGP4","INCLINATION":"53.2176","GP_ID":"193694684","MEAN_MOTION_DOT":"-0.00659682","COUNTRY_CODE":"US","ECCENTRICITY":"0.00015400","REF_FRAME":"TEME"},{"REV_AT_EPOCH":"365","NORAD_CAT_ID":"49428","EPHEMERIS_TYPE":"0","PERIOD":"94.026","RCS_SIZE":"LARGE","TLE_LINE1":"1 49428U 21104W   22011.91667824 -.00658600  00000-0 -22988-1 0  9991","MEAN_MOTION_DDOT":"0.0000000000000","DECAY_DATE":null,"FILE":"3269987","OBJECT_TYPE":"PAYLOAD","OBJECT_ID":"2021-104W","CENTER_NAME":"EARTH","SITE":"AFETR","MEAN_ANOMALY":"83.5367","CLASSIFICATION_TYPE":"U","ELEMENT_SET_NO":"999","TLE_LINE2":"2 49428  53.2176 203.8421 0001562  52.0907  83.5367 15.31496613  3655","BSTAR":"-0.02298800000000","LAUNCH_DATE":"2021-11-13","EPOCH":"2022-01-11T22:00:00.999936","ECCENTRICITY":"0.00015620","REF_FRAME":"TEME","COUNTRY_CODE":"US","MEAN_MOTION_DOT":"-0.00658600","GP_ID":"193694941","ARG_OF_PERICENTER":"52.0907","MEAN_ELEMENT_THEORY":"SGP4","INCLINATION":"53.2176","MEAN_MOTION":"15.31496613","APOAPSIS":"472.418","RA_OF_ASC_NODE":"203.8421","PERIAPSIS":"470.278","OBJECT_NAME":"STARLINK-3121","TIME_SYSTEM":"UTC","SEMIMAJOR_AXIS":"6849.483"},{"ECCENTRICITY":"0.00014730","REF_FRAME":"TEME","MEAN_MOTION_DOT":"-0.00659266","COUNTRY_CODE":"US","GP_ID":"193695185","MEAN_ELEMENT_THEORY":"SGP4","ARG_OF_PERICENTER":"54.0619","INCLINATION":"53.2176","RA_OF_ASC_NODE":"203.8447","APOAPSIS":"472.933","MEAN_MOTION":"15.31303737","OBJECT_NAME":"STARLINK-3138","PERIAPSIS":"470.914","TIME_SYSTEM":"UTC","SEMIMAJOR_AXIS":"6850.058","EPHEMERIS_TYPE":"0","REV_AT_EPOCH":"364","NORAD_CAT_ID":"49430","PERIOD":"94.038","DECAY_DATE":null,"MEAN_MOTION_DDOT":"0.0000000000000","RCS_SIZE":"LARGE","TLE_LINE1":"1 49430U 21104Y   22011.91667824 -.00659266  00000-0 -23153-1 0  9998","FILE":"3269987","OBJECT_ID":"2021-104Y","OBJECT_TYPE":"PAYLOAD","SITE":"AFETR","CENTER_NAME":"EARTH","CLASSIFICATION_TYPE":"U","ELEMENT_SET_NO":"999","MEAN_ANOMALY":"57.9774","BSTAR":"-0.02315300000000","TLE_LINE2":"2 49430  53.2176 203.8447 0001473  54.0619  57.9774 15.31303737  3649","LAUNCH_DATE":"2021-11-13","EPOCH":"2022-01-11T22:00:00.999936"},{"MEAN_MOTION_DOT":"-0.00660757","COUNTRY_CODE":"US","ECCENTRICITY":"0.00015720","REF_FRAME":"TEME","ARG_OF_PERICENTER":"43.3634","MEAN_ELEMENT_THEORY":"SGP4","INCLINATION":"53.2177","GP_ID":"193694440","APOAPSIS":"475.682","RA_OF_ASC_NODE":"203.8430","MEAN_MOTION":"15.30405099","SEMIMAJOR_AXIS":"6852.740","PERIAPSIS":"473.527","OBJECT_NAME":"STARLINK-3153","TIME_SYSTEM":"UTC","TLE_LINE1":"1 49431U 21104Z   22011.91667824 -.00660757  00000-0 -23870-1 0  9992","RCS_SIZE":"LARGE","MEAN_MOTION_DDOT":"0.0000000000000","DECAY_DATE":null,"REV_AT_EPOCH":"364","NORAD_CAT_ID":"49431","EPHEMERIS_TYPE":"0","PERIOD":"94.093","FILE":"3269987","OBJECT_TYPE":"PAYLOAD","OBJECT_ID":"2021-104Z","SITE":"AFETR","CENTER_NAME":"EARTH","MEAN_ANOMALY":"334.4161","ELEMENT_SET_NO":"999","CLASSIFICATION_TYPE":"U","LAUNCH_DATE":"2021-11-13","EPOCH":"2022-01-11T22:00:00.999936","TLE_LINE2":"2 49431  53.2177 203.8430 0001572  43.3634 334.4161 15.30405099  3647","BSTAR":"-0.02387000000000"},{"REF_FRAME":"TEME","ECCENTRICITY":"0.00016940","COUNTRY_CODE":"US","MEAN_MOTION_DOT":"-0.00658452","GP_ID":"193694185","INCLINATION":"53.2176","MEAN_ELEMENT_THEORY":"SGP4","ARG_OF_PERICENTER":"32.1383","RA_OF_ASC_NODE":"199.5353","APOAPSIS":"390.491","MEAN_MOTION":"15.59417238","TIME_SYSTEM":"UTC","OBJECT_NAME":"STARLINK-3158","PERIAPSIS":"388.198","SEMIMAJOR_AXIS":"6767.480","PERIOD":"92.342","EPHEMERIS_TYPE":"0","NORAD_CAT_ID":"49432","REV_AT_EPOCH":"367","MEAN_MOTION_DDOT":"0.0000000000000","DECAY_DATE":null,"RCS_SIZE":"LARGE","TLE_LINE1":"1 49432U 21104AA  22011.91667824 -.00658452  00000-0 -88634-2 0  9992","OBJECT_ID":"2021-104AA","OBJECT_TYPE":"PAYLOAD","FILE":"3269987","ELEMENT_SET_NO":"999","CLASSIFICATION_TYPE":"U","MEAN_ANOMALY":"338.3817","SITE":"AFETR","CENTER_NAME":"EARTH","BSTAR":"-0.00886340000000","TLE_LINE2":"2 49432  53.2176 199.5353 0001694  32.1383 338.3817 15.59417238  3677","EPOCH":"2022-01-11T22:00:00.999936","LAUNCH_DATE":"2021-11-13"},{"MEAN_MOTION_DDOT":"0.0000000000000","DECAY_DATE":null,"TLE_LINE1":"1 49433U 21104AB  22011.91667824 -.00003116  00000-0 -17789-4 0  9999","RCS_SIZE":"LARGE","PERIOD":"91.534","EPHEMERIS_TYPE":"0","NORAD_CAT_ID":"49433","REV_AT_EPOCH":"367","OBJECT_ID":"2021-104AB","OBJECT_TYPE":"PAYLOAD","FILE":"3269987","CLASSIFICATION_TYPE":"U","ELEMENT_SET_NO":"999","MEAN_ANOMALY":"203.3718","CENTER_NAME":"EARTH","SITE":"AFETR","EPOCH":"2022-01-11T22:00:00.999936","LAUNCH_DATE":"2021-11-13","BSTAR":"-0.00001778900000","TLE_LINE2":"2 49433  53.2159 199.1503 0002731  15.6217 203.3718 15.73179735  3671","MEAN_MOTION_DOT":"-0.00003116","COUNTRY_CODE":"US","REF_FRAME":"TEME","ECCENTRICITY":"0.00027310","INCLINATION":"53.2159","MEAN_ELEMENT_THEORY":"SGP4","ARG_OF_PERICENTER":"15.6217","GP_ID":"193695441","MEAN_MOTION":"15.73179735","APOAPSIS":"351.655","RA_OF_ASC_NODE":"199.1503","SEMIMAJOR_AXIS":"6727.953","TIME_SYSTEM":"UTC","PERIAPSIS":"347.981","OBJECT_NAME":"STARLINK-3079"}];
